{"type":"FeatureCollection","metadata":{"source":"https://www.data.gouv.fr/datasets/liste-des-radars-fixes-en-france/","version":"2025-12","exportedAt":"2026-06-01T13:42:32.888Z","count":287},"features":[{"type":"Feature","geometry":{"type":"Point","coordinates":[2.4732,48.977]},"properties":{"id":"12034","radarType":"ETD","speedLimit":80,"inServiceSince":"18/02/2013 00:00"}},{"type":"Feature","geometry":{"type":"Point","coordinates":[2.482158,48.997662]},"properties":{"id":"12036","radarType":"ETD","speedLimit":80,"inServiceSince":"04/10/2013 00:00"}},{"type":"Feature","geometry":{"type":"Point","coordinates":[2.0053,48.903]},"properties":{"id":"12072","radarType":"ETD","speedLimit":70,"inServiceSince":"13/12/2013 00:00"}},{"type":"Feature","geometry":{"type":"Point","coordinates":[2.2135,48.778]},"properties":{"id":"12074","radarType":"ETD","speedLimit":90,"inServiceSince":"15/03/2013 00:00"}},{"type":"Feature","geometry":{"type":"Point","coordinates":[1.8357,48.506]},"properties":{"id":"12075","radarType":"ETD","speedLimit":80,"inServiceSince":"10/08/2012 00:00"}},{"type":"Feature","geometry":{"type":"Point","coordinates":[1.772916,48.798458]},"properties":{"id":"12076","radarType":"ETD","speedLimit":80,"inServiceSince":"09/10/2012 00:00"}},{"type":"Feature","geometry":{"type":"Point","coordinates":[2.3333,48.609]},"properties":{"id":"12136","radarType":"ETD","speedLimit":80,"inServiceSince":"05/08/2013 00:00"}},{"type":"Feature","geometry":{"type":"Point","coordinates":[2.3332,48.609]},"properties":{"id":"12137","radarType":"ETD","speedLimit":80,"inServiceSince":"05/08/2013 00:00"}},{"type":"Feature","geometry":{"type":"Point","coordinates":[2.4873,49.035]},"properties":{"id":"12140","radarType":"ETD","speedLimit":80,"inServiceSince":"07/06/2013 00:00"}},{"type":"Feature","geometry":{"type":"Point","coordinates":[2.3584,49.060959]},"properties":{"id":"12141","radarType":"ETD","speedLimit":80,"inServiceSince":"23/01/2013 00:00"}},{"type":"Feature","geometry":{"type":"Point","coordinates":[2.732704,49.087861]},"properties":{"id":"12166","radarType":"ETD","speedLimit":80,"inServiceSince":"09/09/2013 00:00"}},{"type":"Feature","geometry":{"type":"Point","coordinates":[2.3604,48.625]},"properties":{"id":"12183","radarType":"ETD","speedLimit":80,"inServiceSince":"14/10/2013 00:00"}},{"type":"Feature","geometry":{"type":"Point","coordinates":[2.209299,48.536733]},"properties":{"id":"12237","radarType":"ETD","speedLimit":70,"inServiceSince":"20/01/2014 00:00"}},{"type":"Feature","geometry":{"type":"Point","coordinates":[3.4819,48.485]},"properties":{"id":"12244","radarType":"ETD","speedLimit":80,"inServiceSince":"27/05/2014 00:00"}},{"type":"Feature","geometry":{"type":"Point","coordinates":[2.35531,48.62935]},"properties":{"id":"12288","radarType":"ETD","speedLimit":70,"inServiceSince":"21/03/2014 00:00"}},{"type":"Feature","geometry":{"type":"Point","coordinates":[2.450885,48.95139]},"properties":{"id":"12297","radarType":"ETD","speedLimit":90,"inServiceSince":"23/05/2014 00:00"}},{"type":"Feature","geometry":{"type":"Point","coordinates":[2.510128,48.967674]},"properties":{"id":"12303","radarType":"ETD","speedLimit":90,"inServiceSince":"25/05/2018 00:00"}},{"type":"Feature","geometry":{"type":"Point","coordinates":[2.1454,49.01541]},"properties":{"id":"12345","radarType":"ETD","speedLimit":90,"inServiceSince":"14/04/2016 00:00"}},{"type":"Feature","geometry":{"type":"Point","coordinates":[2.28241,49.05951]},"properties":{"id":"12346","radarType":"ETD","speedLimit":80,"inServiceSince":"04/02/2016 00:00"}},{"type":"Feature","geometry":{"type":"Point","coordinates":[2.245657,49.07116]},"properties":{"id":"12404","radarType":"ETD","speedLimit":80,"inServiceSince":"25/07/2016 15:00"}},{"type":"Feature","geometry":{"type":"Point","coordinates":[2.63788,48.57917]},"properties":{"id":"12417","radarType":"ETD","speedLimit":90,"inServiceSince":"28/04/2017 00:00"}},{"type":"Feature","geometry":{"type":"Point","coordinates":[2.44358,48.7037]},"properties":{"id":"12421","radarType":"ETD","speedLimit":80,"inServiceSince":"25/07/2016 00:00"}},{"type":"Feature","geometry":{"type":"Point","coordinates":[1.626852,48.78852]},"properties":{"id":"12432","radarType":"ETD","speedLimit":80,"inServiceSince":"28/11/2016 00:00"}},{"type":"Feature","geometry":{"type":"Point","coordinates":[2.308,48.7129]},"properties":{"id":"12472","radarType":"ETD","speedLimit":90,"inServiceSince":"25/07/2016 00:00"}},{"type":"Feature","geometry":{"type":"Point","coordinates":[2.070456,48.790311]},"properties":{"id":"12481","radarType":"ETD","speedLimit":80,"inServiceSince":"27/03/2017 00:00"}},{"type":"Feature","geometry":{"type":"Point","coordinates":[2.154142,48.832194]},"properties":{"id":"12515","radarType":"ETD","speedLimit":90,"inServiceSince":"17/04/2017 00:00"}},{"type":"Feature","geometry":{"type":"Point","coordinates":[2.140934,48.423793]},"properties":{"id":"12519","radarType":"ETD","speedLimit":70,"inServiceSince":"17/10/2016 00:00"}},{"type":"Feature","geometry":{"type":"Point","coordinates":[2.194555,48.485161]},"properties":{"id":"12520","radarType":"ETD","speedLimit":70,"inServiceSince":"26/06/2017 00:00"}},{"type":"Feature","geometry":{"type":"Point","coordinates":[2.342725,48.673921]},"properties":{"id":"12528","radarType":"ETD","speedLimit":90,"inServiceSince":"17/05/2019 00:00"}},{"type":"Feature","geometry":{"type":"Point","coordinates":[2.47448,48.88166]},"properties":{"id":"12541","radarType":"ETD","speedLimit":70,"inServiceSince":"30/05/2025 00:00"}},{"type":"Feature","geometry":{"type":"Point","coordinates":[1.72154,48.97626]},"properties":{"id":"12569","radarType":"ETD","speedLimit":90,"inServiceSince":"16/08/2023 00:00"}},{"type":"Feature","geometry":{"type":"Point","coordinates":[2.080437,48.997626]},"properties":{"id":"12571","radarType":"ETD","speedLimit":70,"inServiceSince":"02/12/2020 00:00"}},{"type":"Feature","geometry":{"type":"Point","coordinates":[2.060788,48.814921]},"properties":{"id":"12573","radarType":"ETD","speedLimit":90,"inServiceSince":"07/03/2023 00:00"}},{"type":"Feature","geometry":{"type":"Point","coordinates":[2.54522,48.96191]},"properties":{"id":"12633","radarType":"ETD","speedLimit":90,"inServiceSince":"02/04/2020 00:00"}},{"type":"Feature","geometry":{"type":"Point","coordinates":[2.44391,48.70355]},"properties":{"id":"12666","radarType":"ETD","speedLimit":80,"inServiceSince":"20/06/2023 00:00"}},{"type":"Feature","geometry":{"type":"Point","coordinates":[2.669814,48.872792]},"properties":{"id":"12668","radarType":"ETD","speedLimit":80,"inServiceSince":"04/07/2024 15:00"}},{"type":"Feature","geometry":{"type":"Point","coordinates":[2.670092,48.87359]},"properties":{"id":"12669","radarType":"ETD","speedLimit":80,"inServiceSince":"11/07/2023 16:30"}},{"type":"Feature","geometry":{"type":"Point","coordinates":[2.72933,48.7339]},"properties":{"id":"12678","radarType":"ETD","speedLimit":80,"inServiceSince":"16/12/2022 10:00"}},{"type":"Feature","geometry":{"type":"Point","coordinates":[2.631771,48.830295]},"properties":{"id":"12679","radarType":"ETD","speedLimit":90,"inServiceSince":"15/11/2023 15:50"}},{"type":"Feature","geometry":{"type":"Point","coordinates":[2.480256,48.937678]},"properties":{"id":"12680","radarType":"ETD","speedLimit":90,"inServiceSince":"28/03/2024 00:00"}},{"type":"Feature","geometry":{"type":"Point","coordinates":[2.649106,48.90216]},"properties":{"id":"12685","radarType":"ETD","speedLimit":80,"inServiceSince":"04/04/2025 13:00"}},{"type":"Feature","geometry":{"type":"Point","coordinates":[2.667808,48.888994]},"properties":{"id":"12686","radarType":"ETD","speedLimit":80,"inServiceSince":"17/05/2023 15:15"}},{"type":"Feature","geometry":{"type":"Point","coordinates":[2.21065,48.74922]},"properties":{"id":"12707","radarType":"ETD","speedLimit":80,"inServiceSince":"02/08/2022 00:00"}},{"type":"Feature","geometry":{"type":"Point","coordinates":[2.456824,48.818456]},"properties":{"id":"12724","radarType":"ETD","speedLimit":90,"inServiceSince":"02/01/2025 00:00"}},{"type":"Feature","geometry":{"type":"Point","coordinates":[2.09775,49.0193]},"properties":{"id":"12726","radarType":"ETD","speedLimit":70,"inServiceSince":"26/12/2023 00:00"}},{"type":"Feature","geometry":{"type":"Point","coordinates":[2.33953,48.80902]},"properties":{"id":"12728","radarType":"ETD","speedLimit":90,"inServiceSince":"05/03/2024 12:30"}},{"type":"Feature","geometry":{"type":"Point","coordinates":[2.233228,48.977147]},"properties":{"id":"12741","radarType":"ETD","speedLimit":90,"inServiceSince":"03/10/2025 09:30"}},{"type":"Feature","geometry":{"type":"Point","coordinates":[2.18042,48.46367]},"properties":{"id":"12742","radarType":"ETD","speedLimit":70,"inServiceSince":"24/01/2024 10:00"}},{"type":"Feature","geometry":{"type":"Point","coordinates":[2.14675,48.63505]},"properties":{"id":"12743","radarType":"ETD","speedLimit":90,"inServiceSince":"31/10/2024 00:00"}},{"type":"Feature","geometry":{"type":"Point","coordinates":[2.755491,48.949268]},"properties":{"id":"12747","radarType":"ETD","speedLimit":80,"inServiceSince":"04/09/2025 10:00"}},{"type":"Feature","geometry":{"type":"Point","coordinates":[2.612822,48.768353]},"properties":{"id":"12748","radarType":"ETD","speedLimit":90,"inServiceSince":"03/10/2025 14:02"}},{"type":"Feature","geometry":{"type":"Point","coordinates":[2.4287,48.91851]},"properties":{"id":"12767","radarType":"ETD","speedLimit":90,"inServiceSince":"13/05/2024 00:00"}},{"type":"Feature","geometry":{"type":"Point","coordinates":[2.020155,48.781294]},"properties":{"id":"12771","radarType":"ETD","speedLimit":80,"inServiceSince":"30/12/2025 00:00"}},{"type":"Feature","geometry":{"type":"Point","coordinates":[2.08533,48.8331]},"properties":{"id":"12773","radarType":"ETD","speedLimit":90,"inServiceSince":"15/07/2025 10:40"}},{"type":"Feature","geometry":{"type":"Point","coordinates":[2.18953,48.77981]},"properties":{"id":"12794","radarType":"ETD","speedLimit":90,"inServiceSince":"29/07/2025 00:00"}},{"type":"Feature","geometry":{"type":"Point","coordinates":[2.37925,48.93356]},"properties":{"id":"12799","radarType":"ETD","speedLimit":90,"inServiceSince":"07/04/2025 00:00"}},{"type":"Feature","geometry":{"type":"Point","coordinates":[2.40266,48.9355]},"properties":{"id":"12800","radarType":"ETD","speedLimit":90,"inServiceSince":"11/06/2025 00:00"}},{"type":"Feature","geometry":{"type":"Point","coordinates":[2.18964,48.7798]},"properties":{"id":"12806","radarType":"ETD","speedLimit":90,"inServiceSince":"28/07/2025 00:00"}},{"type":"Feature","geometry":{"type":"Point","coordinates":[2.417,48.939]},"properties":{"id":"12817","radarType":"ETD","speedLimit":90,"inServiceSince":"30/10/2025 00:00"}},{"type":"Feature","geometry":{"type":"Point","coordinates":[2.456306,48.882528]},"properties":{"id":"12819","radarType":"ETD","speedLimit":90,"inServiceSince":"24/02/2025 00:00"}},{"type":"Feature","geometry":{"type":"Point","coordinates":[2.27976,48.67029]},"properties":{"id":"103","radarType":"ETF","speedLimit":70,"inServiceSince":"31/10/2003 19:25"}},{"type":"Feature","geometry":{"type":"Point","coordinates":[2.4065,48.63212]},"properties":{"id":"105","radarType":"ETF","speedLimit":110,"inServiceSince":"31/10/2003 12:51"}},{"type":"Feature","geometry":{"type":"Point","coordinates":[2.2516,48.88743]},"properties":{"id":"118","radarType":"ETF","speedLimit":70,"inServiceSince":"25/11/2003 16:59"}},{"type":"Feature","geometry":{"type":"Point","coordinates":[2.19009,48.70775]},"properties":{"id":"119","radarType":"ETF","speedLimit":90,"inServiceSince":"14/11/2003 13:46"}},{"type":"Feature","geometry":{"type":"Point","coordinates":[2.24157,48.8869]},"properties":{"id":"120","radarType":"ETF","speedLimit":50,"inServiceSince":"04/12/2003 13:03"}},{"type":"Feature","geometry":{"type":"Point","coordinates":[2.37965,48.822]},"properties":{"id":"121","radarType":"ETF","speedLimit":50,"inServiceSince":"24/01/2004 00:50"}},{"type":"Feature","geometry":{"type":"Point","coordinates":[2.31005,48.82352]},"properties":{"id":"122","radarType":"ETF","speedLimit":50,"inServiceSince":"10/01/2004 02:09"}},{"type":"Feature","geometry":{"type":"Point","coordinates":[2.40784,48.7741]},"properties":{"id":"133","radarType":"ETF","speedLimit":90,"inServiceSince":"06/01/2004 10:02"}},{"type":"Feature","geometry":{"type":"Point","coordinates":[2.30974,48.89645]},"properties":{"id":"136","radarType":"ETF","speedLimit":50,"inServiceSince":"14/02/2004 08:00"}},{"type":"Feature","geometry":{"type":"Point","coordinates":[2.39613,48.89004]},"properties":{"id":"143","radarType":"ETF","speedLimit":50,"inServiceSince":"10/01/2004 00:03"}},{"type":"Feature","geometry":{"type":"Point","coordinates":[2.44854,48.8167]},"properties":{"id":"144","radarType":"ETF","speedLimit":90,"inServiceSince":"16/12/2003 15:42"}},{"type":"Feature","geometry":{"type":"Point","coordinates":[2.76366,48.15247]},"properties":{"id":"199","radarType":"ETF","speedLimit":70,"inServiceSince":"01/10/2004 08:00"}},{"type":"Feature","geometry":{"type":"Point","coordinates":[2.33193,49.04783]},"properties":{"id":"230","radarType":"ETF","speedLimit":90,"inServiceSince":"09/08/2004 08:00"}},{"type":"Feature","geometry":{"type":"Point","coordinates":[2.56774,48.93387]},"properties":{"id":"232","radarType":"ETF","speedLimit":90,"inServiceSince":"08/12/2004 00:00"}},{"type":"Feature","geometry":{"type":"Point","coordinates":[2.45083,48.78988]},"properties":{"id":"483","radarType":"ETF","speedLimit":70,"inServiceSince":"16/12/2005 00:00"}},{"type":"Feature","geometry":{"type":"Point","coordinates":[2.29052,48.90645]},"properties":{"id":"524","radarType":"ETF","speedLimit":70,"inServiceSince":"07/04/2005 22:00"}},{"type":"Feature","geometry":{"type":"Point","coordinates":[2.38791,48.93971]},"properties":{"id":"525","radarType":"ETF","speedLimit":50,"inServiceSince":"25/02/2005 15:00"}},{"type":"Feature","geometry":{"type":"Point","coordinates":[2.37065,48.71969]},"properties":{"id":"587","radarType":"ETF","speedLimit":70,"inServiceSince":"10/10/2005 00:00"}},{"type":"Feature","geometry":{"type":"Point","coordinates":[2.47952,48.829]},"properties":{"id":"798","radarType":"ETF","speedLimit":90,"inServiceSince":"30/03/2006 00:00"}},{"type":"Feature","geometry":{"type":"Point","coordinates":[2.24145,48.93396]},"properties":{"id":"801","radarType":"ETF","speedLimit":90,"inServiceSince":"19/01/2006 09:05"}},{"type":"Feature","geometry":{"type":"Point","coordinates":[2.22399,48.83791]},"properties":{"id":"3032","radarType":"ETF","speedLimit":50,"inServiceSince":"01/12/2005 00:00"}},{"type":"Feature","geometry":{"type":"Point","coordinates":[2.15161,48.8268]},"properties":{"id":"3033","radarType":"ETF","speedLimit":70,"inServiceSince":"14/01/2006 00:00"}},{"type":"Feature","geometry":{"type":"Point","coordinates":[2.28062,48.83241]},"properties":{"id":"3048","radarType":"ETF","speedLimit":70,"inServiceSince":"06/10/2005 00:00"}},{"type":"Feature","geometry":{"type":"Point","coordinates":[2.28803,48.88572]},"properties":{"id":"3049","radarType":"ETF","speedLimit":50,"inServiceSince":"06/10/2005 00:00"}},{"type":"Feature","geometry":{"type":"Point","coordinates":[2.41399,48.86087]},"properties":{"id":"3050","radarType":"ETF","speedLimit":50,"inServiceSince":"07/12/2005 00:00"}},{"type":"Feature","geometry":{"type":"Point","coordinates":[2.22461,48.86819]},"properties":{"id":"3221","radarType":"ETF","speedLimit":50,"inServiceSince":"14/01/2006 00:00"}},{"type":"Feature","geometry":{"type":"Point","coordinates":[2.514839,48.478971]},"properties":{"id":"4106","radarType":"ETF","speedLimit":130,"inServiceSince":"28/08/2008 00:00"}},{"type":"Feature","geometry":{"type":"Point","coordinates":[2.514423,48.481624]},"properties":{"id":"4107","radarType":"ETF","speedLimit":130,"inServiceSince":"28/08/2008 00:00"}},{"type":"Feature","geometry":{"type":"Point","coordinates":[2.55414,48.61834]},"properties":{"id":"4112","radarType":"ETF","speedLimit":110,"inServiceSince":"16/09/2009 00:00"}},{"type":"Feature","geometry":{"type":"Point","coordinates":[2.55419,48.61832]},"properties":{"id":"4113","radarType":"ETF","speedLimit":110,"inServiceSince":"12/08/2009 00:00"}},{"type":"Feature","geometry":{"type":"Point","coordinates":[2.27738,48.71328]},"properties":{"id":"4139","radarType":"ETF","speedLimit":90,"inServiceSince":"17/09/2008 00:00"}},{"type":"Feature","geometry":{"type":"Point","coordinates":[2.49999,48.71977]},"properties":{"id":"4145","radarType":"ETF","speedLimit":50,"inServiceSince":"04/12/2008 00:00"}},{"type":"Feature","geometry":{"type":"Point","coordinates":[2.1123,48.83428]},"properties":{"id":"4386","radarType":"ETF","speedLimit":70,"inServiceSince":"02/06/2009 00:00"}},{"type":"Feature","geometry":{"type":"Point","coordinates":[2.12223,48.81761]},"properties":{"id":"4389","radarType":"ETF","speedLimit":50,"inServiceSince":"30/10/2009 00:00"}},{"type":"Feature","geometry":{"type":"Point","coordinates":[2.0532,48.9246]},"properties":{"id":"4390","radarType":"ETF","speedLimit":30,"inServiceSince":"24/12/2008 00:00"}},{"type":"Feature","geometry":{"type":"Point","coordinates":[2.1645,48.7639]},"properties":{"id":"4392","radarType":"ETF","speedLimit":50,"inServiceSince":"11/12/2008 00:00"}},{"type":"Feature","geometry":{"type":"Point","coordinates":[2.2106,48.8864]},"properties":{"id":"4403","radarType":"ETF","speedLimit":50,"inServiceSince":"05/03/2009 00:00"}},{"type":"Feature","geometry":{"type":"Point","coordinates":[2.25882,48.80795]},"properties":{"id":"4406","radarType":"ETF","speedLimit":50,"inServiceSince":"17/12/2008 00:00"}},{"type":"Feature","geometry":{"type":"Point","coordinates":[2.2386,48.8754]},"properties":{"id":"4408","radarType":"ETF","speedLimit":50,"inServiceSince":"13/01/2009 00:00"}},{"type":"Feature","geometry":{"type":"Point","coordinates":[2.5088,48.749]},"properties":{"id":"4417","radarType":"ETF","speedLimit":50,"inServiceSince":"20/05/2009 00:00"}},{"type":"Feature","geometry":{"type":"Point","coordinates":[2.49814,48.81709]},"properties":{"id":"4419","radarType":"ETF","speedLimit":50,"inServiceSince":"23/06/2009 00:00"}},{"type":"Feature","geometry":{"type":"Point","coordinates":[2.50757,49.03754]},"properties":{"id":"4756","radarType":"ETF","speedLimit":90,"inServiceSince":"29/01/2010 00:00"}},{"type":"Feature","geometry":{"type":"Point","coordinates":[2.1003,48.88705]},"properties":{"id":"4774","radarType":"ETF","speedLimit":50,"inServiceSince":"12/11/2009 00:00"}},{"type":"Feature","geometry":{"type":"Point","coordinates":[2.15811,48.86913]},"properties":{"id":"5100","radarType":"ETF","speedLimit":70,"inServiceSince":"01/07/2009 00:00"}},{"type":"Feature","geometry":{"type":"Point","coordinates":[2.15812,48.86913]},"properties":{"id":"5101","radarType":"ETF","speedLimit":70,"inServiceSince":"01/07/2009 00:00"}},{"type":"Feature","geometry":{"type":"Point","coordinates":[2.15813,48.86913]},"properties":{"id":"5102","radarType":"ETF","speedLimit":70,"inServiceSince":"01/07/2009 00:00"}},{"type":"Feature","geometry":{"type":"Point","coordinates":[2.15601,48.85599]},"properties":{"id":"5103","radarType":"ETF","speedLimit":70,"inServiceSince":"01/07/2009 00:00"}},{"type":"Feature","geometry":{"type":"Point","coordinates":[2.15602,48.85599]},"properties":{"id":"5104","radarType":"ETF","speedLimit":70,"inServiceSince":"01/07/2009 00:00"}},{"type":"Feature","geometry":{"type":"Point","coordinates":[2.15603,48.85599]},"properties":{"id":"5105","radarType":"ETF","speedLimit":70,"inServiceSince":"01/07/2009 00:00"}},{"type":"Feature","geometry":{"type":"Point","coordinates":[2.15604,48.85599]},"properties":{"id":"5106","radarType":"ETF","speedLimit":70,"inServiceSince":"26/06/2009 06:00"}},{"type":"Feature","geometry":{"type":"Point","coordinates":[2.15605,48.85599]},"properties":{"id":"5107","radarType":"ETF","speedLimit":70,"inServiceSince":"26/06/2009 06:00"}},{"type":"Feature","geometry":{"type":"Point","coordinates":[2.15606,48.85599]},"properties":{"id":"5108","radarType":"ETF","speedLimit":70,"inServiceSince":"26/06/2009 06:00"}},{"type":"Feature","geometry":{"type":"Point","coordinates":[2.14521,48.83959]},"properties":{"id":"5109","radarType":"ETF","speedLimit":70,"inServiceSince":"01/07/2009 00:00"}},{"type":"Feature","geometry":{"type":"Point","coordinates":[2.14522,48.83959]},"properties":{"id":"5110","radarType":"ETF","speedLimit":70,"inServiceSince":"01/07/2009 00:00"}},{"type":"Feature","geometry":{"type":"Point","coordinates":[2.14523,48.83959]},"properties":{"id":"5111","radarType":"ETF","speedLimit":70,"inServiceSince":"01/07/2009 00:00"}},{"type":"Feature","geometry":{"type":"Point","coordinates":[2.14524,48.83959]},"properties":{"id":"5112","radarType":"ETF","speedLimit":70,"inServiceSince":"26/06/2009 06:00"}},{"type":"Feature","geometry":{"type":"Point","coordinates":[2.14525,48.83959]},"properties":{"id":"5113","radarType":"ETF","speedLimit":70,"inServiceSince":"26/06/2009 06:00"}},{"type":"Feature","geometry":{"type":"Point","coordinates":[2.14526,48.83959]},"properties":{"id":"5114","radarType":"ETF","speedLimit":70,"inServiceSince":"26/06/2009 06:00"}},{"type":"Feature","geometry":{"type":"Point","coordinates":[2.14801,48.83101]},"properties":{"id":"5115","radarType":"ETF","speedLimit":70,"inServiceSince":"09/01/2011 00:00"}},{"type":"Feature","geometry":{"type":"Point","coordinates":[2.14802,48.83101]},"properties":{"id":"5116","radarType":"ETF","speedLimit":70,"inServiceSince":"09/01/2011 00:00"}},{"type":"Feature","geometry":{"type":"Point","coordinates":[2.14803,48.83101]},"properties":{"id":"5117","radarType":"ETF","speedLimit":70,"inServiceSince":"09/01/2011 06:00"}},{"type":"Feature","geometry":{"type":"Point","coordinates":[2.14804,48.83101]},"properties":{"id":"5118","radarType":"ETF","speedLimit":70,"inServiceSince":"09/01/2011 06:00"}},{"type":"Feature","geometry":{"type":"Point","coordinates":[2.14805,48.83101]},"properties":{"id":"5119","radarType":"ETF","speedLimit":70,"inServiceSince":"09/01/2011 00:00"}},{"type":"Feature","geometry":{"type":"Point","coordinates":[2.14807,48.83101]},"properties":{"id":"5120","radarType":"ETF","speedLimit":70,"inServiceSince":"09/01/2011 06:00"}},{"type":"Feature","geometry":{"type":"Point","coordinates":[2.15921,48.81291]},"properties":{"id":"5121","radarType":"ETF","speedLimit":70,"inServiceSince":"09/01/2011 06:00"}},{"type":"Feature","geometry":{"type":"Point","coordinates":[2.15922,48.81291]},"properties":{"id":"5122","radarType":"ETF","speedLimit":70,"inServiceSince":"09/01/2011 06:00"}},{"type":"Feature","geometry":{"type":"Point","coordinates":[2.15923,48.81291]},"properties":{"id":"5123","radarType":"ETF","speedLimit":70,"inServiceSince":"09/01/2011 06:00"}},{"type":"Feature","geometry":{"type":"Point","coordinates":[2.15924,48.81291]},"properties":{"id":"5124","radarType":"ETF","speedLimit":70,"inServiceSince":"09/01/2011 06:00"}},{"type":"Feature","geometry":{"type":"Point","coordinates":[2.15925,48.81291]},"properties":{"id":"5125","radarType":"ETF","speedLimit":70,"inServiceSince":"09/01/2011 06:00"}},{"type":"Feature","geometry":{"type":"Point","coordinates":[2.15926,48.81291]},"properties":{"id":"5126","radarType":"ETF","speedLimit":70,"inServiceSince":"09/01/2011 06:00"}},{"type":"Feature","geometry":{"type":"Point","coordinates":[2.16321,48.79863]},"properties":{"id":"5127","radarType":"ETF","speedLimit":70,"inServiceSince":"09/01/2011 06:00"}},{"type":"Feature","geometry":{"type":"Point","coordinates":[2.16322,48.79863]},"properties":{"id":"5128","radarType":"ETF","speedLimit":70,"inServiceSince":"09/01/2011 06:00"}},{"type":"Feature","geometry":{"type":"Point","coordinates":[2.16323,48.79863]},"properties":{"id":"5129","radarType":"ETF","speedLimit":70,"inServiceSince":"09/01/2011 06:00"}},{"type":"Feature","geometry":{"type":"Point","coordinates":[2.16324,48.79863]},"properties":{"id":"5130","radarType":"ETF","speedLimit":70,"inServiceSince":"09/01/2011 06:00"}},{"type":"Feature","geometry":{"type":"Point","coordinates":[2.16325,48.79863]},"properties":{"id":"5131","radarType":"ETF","speedLimit":70,"inServiceSince":"09/01/2011 06:00"}},{"type":"Feature","geometry":{"type":"Point","coordinates":[2.16326,48.79863]},"properties":{"id":"5132","radarType":"ETF","speedLimit":70,"inServiceSince":"09/01/2011 06:00"}},{"type":"Feature","geometry":{"type":"Point","coordinates":[2.15621,48.78416]},"properties":{"id":"5133","radarType":"ETF","speedLimit":70,"inServiceSince":"09/01/2011 06:00"}},{"type":"Feature","geometry":{"type":"Point","coordinates":[2.15622,48.78416]},"properties":{"id":"5134","radarType":"ETF","speedLimit":70,"inServiceSince":"09/01/2011 06:00"}},{"type":"Feature","geometry":{"type":"Point","coordinates":[2.15623,48.78416]},"properties":{"id":"5135","radarType":"ETF","speedLimit":70,"inServiceSince":"09/01/2011 06:00"}},{"type":"Feature","geometry":{"type":"Point","coordinates":[2.37842,48.83665]},"properties":{"id":"6004","radarType":"ETF","speedLimit":50,"inServiceSince":"19/04/2006 00:00"}},{"type":"Feature","geometry":{"type":"Point","coordinates":[2.23885,48.89171]},"properties":{"id":"6012","radarType":"ETF","speedLimit":70,"inServiceSince":"22/05/2006 00:00"}},{"type":"Feature","geometry":{"type":"Point","coordinates":[2.603,48.7281]},"properties":{"id":"6069","radarType":"ETF","speedLimit":90,"inServiceSince":"05/07/2006 00:00"}},{"type":"Feature","geometry":{"type":"Point","coordinates":[2.1378,48.8676]},"properties":{"id":"6644","radarType":"ETF","speedLimit":50,"inServiceSince":"23/02/2007 00:00"}},{"type":"Feature","geometry":{"type":"Point","coordinates":[1.8927,48.46081]},"properties":{"id":"6645","radarType":"ETF","speedLimit":80,"inServiceSince":"09/07/2007 00:00"}},{"type":"Feature","geometry":{"type":"Point","coordinates":[2.25471,48.61327]},"properties":{"id":"6668","radarType":"ETF","speedLimit":70,"inServiceSince":"09/02/2007 00:00"}},{"type":"Feature","geometry":{"type":"Point","coordinates":[2.25972,48.89299]},"properties":{"id":"6670","radarType":"ETF","speedLimit":70,"inServiceSince":"23/02/2007 00:00"}},{"type":"Feature","geometry":{"type":"Point","coordinates":[2.4397,48.7728]},"properties":{"id":"6671","radarType":"ETF","speedLimit":50,"inServiceSince":"23/04/2007 00:00"}},{"type":"Feature","geometry":{"type":"Point","coordinates":[2.3462,49.0336]},"properties":{"id":"6674","radarType":"ETF","speedLimit":90,"inServiceSince":"05/02/2007 00:00"}},{"type":"Feature","geometry":{"type":"Point","coordinates":[2.34761,48.87912]},"properties":{"id":"6779","radarType":"ETF","speedLimit":30,"inServiceSince":"11/05/2007 00:00"}},{"type":"Feature","geometry":{"type":"Point","coordinates":[2.1536,48.6399]},"properties":{"id":"6797","radarType":"ETF","speedLimit":110,"inServiceSince":"07/09/2007 00:00"}},{"type":"Feature","geometry":{"type":"Point","coordinates":[2.2926,48.7184]},"properties":{"id":"6860","radarType":"ETF","speedLimit":90,"inServiceSince":"19/09/2007 00:00"}},{"type":"Feature","geometry":{"type":"Point","coordinates":[2.0984,48.8867]},"properties":{"id":"6878","radarType":"ETF","speedLimit":50,"inServiceSince":"17/04/2008 00:00"}},{"type":"Feature","geometry":{"type":"Point","coordinates":[2.5256,48.6319]},"properties":{"id":"6879","radarType":"ETF","speedLimit":110,"inServiceSince":"25/03/2008 00:00"}},{"type":"Feature","geometry":{"type":"Point","coordinates":[2.34565,48.77228]},"properties":{"id":"7003","radarType":"ETF","speedLimit":90,"inServiceSince":"03/01/2008 00:00"}},{"type":"Feature","geometry":{"type":"Point","coordinates":[2.42736,48.81296]},"properties":{"id":"7005","radarType":"ETF","speedLimit":50,"inServiceSince":"25/02/2009 00:00"}},{"type":"Feature","geometry":{"type":"Point","coordinates":[2.6426,48.8314]},"properties":{"id":"7114","radarType":"ETF","speedLimit":110,"inServiceSince":"28/08/2008 00:00"}},{"type":"Feature","geometry":{"type":"Point","coordinates":[2.9621,48.5815]},"properties":{"id":"7115","radarType":"ETF","speedLimit":90,"inServiceSince":"25/03/2008 00:00"}},{"type":"Feature","geometry":{"type":"Point","coordinates":[2.39371,48.92523]},"properties":{"id":"7166","radarType":"ETF","speedLimit":70,"inServiceSince":"15/12/2009 00:00"}},{"type":"Feature","geometry":{"type":"Point","coordinates":[3.46008,48.47226]},"properties":{"id":"7176","radarType":"ETF","speedLimit":80,"inServiceSince":"08/11/2007 00:00"}},{"type":"Feature","geometry":{"type":"Point","coordinates":[2.14312,49.05014]},"properties":{"id":"7185","radarType":"ETF","speedLimit":90,"inServiceSince":"09/06/2008 00:00"}},{"type":"Feature","geometry":{"type":"Point","coordinates":[2.08489,49.06125]},"properties":{"id":"7188","radarType":"ETF","speedLimit":90,"inServiceSince":"18/04/2008 00:00"}},{"type":"Feature","geometry":{"type":"Point","coordinates":[2.22413,48.81546]},"properties":{"id":"7291","radarType":"ETF","speedLimit":50,"inServiceSince":"12/03/2008 00:00"}},{"type":"Feature","geometry":{"type":"Point","coordinates":[2.33759,48.81114]},"properties":{"id":"7292","radarType":"ETF","speedLimit":70,"inServiceSince":"08/07/2010 00:00"}},{"type":"Feature","geometry":{"type":"Point","coordinates":[1.89152,48.72478]},"properties":{"id":"7397","radarType":"ETF","speedLimit":70,"inServiceSince":"21/03/2008 00:00"}},{"type":"Feature","geometry":{"type":"Point","coordinates":[2.4557,48.616]},"properties":{"id":"8509","radarType":"ETF","speedLimit":90,"inServiceSince":"27/05/2011 00:00"}},{"type":"Feature","geometry":{"type":"Point","coordinates":[2.4488,48.807]},"properties":{"id":"8521","radarType":"ETF","speedLimit":90,"inServiceSince":"03/09/2012 00:00"}},{"type":"Feature","geometry":{"type":"Point","coordinates":[2.2539,49.138]},"properties":{"id":"8628","radarType":"ETF","speedLimit":90,"inServiceSince":"05/05/2011 00:00"}},{"type":"Feature","geometry":{"type":"Point","coordinates":[2.26748,48.87363]},"properties":{"id":"8677","radarType":"ETF","speedLimit":50,"inServiceSince":"14/01/2013 00:00"}},{"type":"Feature","geometry":{"type":"Point","coordinates":[2.3776,48.837]},"properties":{"id":"8679","radarType":"ETF","speedLimit":50,"inServiceSince":"02/01/2014 00:00"}},{"type":"Feature","geometry":{"type":"Point","coordinates":[2.361351,48.900701]},"properties":{"id":"8680","radarType":"ETF","speedLimit":50,"inServiceSince":"01/08/2013 00:00"}},{"type":"Feature","geometry":{"type":"Point","coordinates":[2.413182,48.869597]},"properties":{"id":"8681","radarType":"ETF","speedLimit":50,"inServiceSince":"04/11/2013 00:00"}},{"type":"Feature","geometry":{"type":"Point","coordinates":[2.374834,48.900368]},"properties":{"id":"8682","radarType":"ETF","speedLimit":50,"inServiceSince":"16/12/2013 00:00"}},{"type":"Feature","geometry":{"type":"Point","coordinates":[2.2988,48.826]},"properties":{"id":"8683","radarType":"ETF","speedLimit":50,"inServiceSince":"31/01/2014 00:00"}},{"type":"Feature","geometry":{"type":"Point","coordinates":[2.41434,48.84569]},"properties":{"id":"8685","radarType":"ETF","speedLimit":50,"inServiceSince":"04/11/2013 00:00"}},{"type":"Feature","geometry":{"type":"Point","coordinates":[2.2345,48.926]},"properties":{"id":"8707","radarType":"ETF","speedLimit":90,"inServiceSince":"31/10/2013 00:00"}},{"type":"Feature","geometry":{"type":"Point","coordinates":[2.2267,48.845]},"properties":{"id":"8709","radarType":"ETF","speedLimit":50,"inServiceSince":"25/11/2011 00:00"}},{"type":"Feature","geometry":{"type":"Point","coordinates":[2.3688,48.818]},"properties":{"id":"8739","radarType":"ETF","speedLimit":50,"inServiceSince":"04/11/2013 00:00"}},{"type":"Feature","geometry":{"type":"Point","coordinates":[2.268784,48.866458]},"properties":{"id":"8740","radarType":"ETF","speedLimit":50,"inServiceSince":"08/07/2013 00:00"}},{"type":"Feature","geometry":{"type":"Point","coordinates":[2.1479,48.809]},"properties":{"id":"8779","radarType":"ETF","speedLimit":50,"inServiceSince":"29/04/2011 00:00"}},{"type":"Feature","geometry":{"type":"Point","coordinates":[2.364,48.942]},"properties":{"id":"8863","radarType":"ETF","speedLimit":50,"inServiceSince":"19/08/2011 00:00"}},{"type":"Feature","geometry":{"type":"Point","coordinates":[2.410152,48.847217]},"properties":{"id":"8867","radarType":"ETF","speedLimit":50,"inServiceSince":"11/12/2012 00:00"}},{"type":"Feature","geometry":{"type":"Point","coordinates":[2.408315,48.847222]},"properties":{"id":"8868","radarType":"ETF","speedLimit":50,"inServiceSince":"29/01/2013 00:00"}},{"type":"Feature","geometry":{"type":"Point","coordinates":[2.40478,48.969329]},"properties":{"id":"8983","radarType":"ETF","speedLimit":50,"inServiceSince":"29/09/2011 00:00"}},{"type":"Feature","geometry":{"type":"Point","coordinates":[2.2592,48.826]},"properties":{"id":"8988","radarType":"ETF","speedLimit":50,"inServiceSince":"25/10/2013 00:00"}},{"type":"Feature","geometry":{"type":"Point","coordinates":[2.2529,48.822]},"properties":{"id":"8989","radarType":"ETF","speedLimit":50,"inServiceSince":"14/11/2011 00:00"}},{"type":"Feature","geometry":{"type":"Point","coordinates":[2.1795,48.792]},"properties":{"id":"11041","radarType":"ETF","speedLimit":70,"inServiceSince":"08/12/2011 00:00"}},{"type":"Feature","geometry":{"type":"Point","coordinates":[1.9059,48.766]},"properties":{"id":"11043","radarType":"ETF","speedLimit":50,"inServiceSince":"08/10/2011 00:00"}},{"type":"Feature","geometry":{"type":"Point","coordinates":[2.2633,48.89787]},"properties":{"id":"11191","radarType":"ETF","speedLimit":50,"inServiceSince":"01/07/2014 00:00"}},{"type":"Feature","geometry":{"type":"Point","coordinates":[2.19792,48.8089]},"properties":{"id":"11193","radarType":"ETF","speedLimit":50,"inServiceSince":"12/10/2012 00:00"}},{"type":"Feature","geometry":{"type":"Point","coordinates":[2.1339,48.805]},"properties":{"id":"11196","radarType":"ETF","speedLimit":50,"inServiceSince":"04/09/2012 00:00"}},{"type":"Feature","geometry":{"type":"Point","coordinates":[2.1339,48.805]},"properties":{"id":"11197","radarType":"ETF","speedLimit":50,"inServiceSince":"04/09/2012 00:00"}},{"type":"Feature","geometry":{"type":"Point","coordinates":[2.81354,48.844561]},"properties":{"id":"11229","radarType":"ETF","speedLimit":90,"inServiceSince":"07/10/2013 00:00"}},{"type":"Feature","geometry":{"type":"Point","coordinates":[2.1067,48.877]},"properties":{"id":"11251","radarType":"ETF","speedLimit":50,"inServiceSince":"03/06/2013 00:00"}},{"type":"Feature","geometry":{"type":"Point","coordinates":[2.390433,48.840788]},"properties":{"id":"11261","radarType":"ETF","speedLimit":30,"inServiceSince":"27/01/2014 00:00"}},{"type":"Feature","geometry":{"type":"Point","coordinates":[2.36061,48.84709]},"properties":{"id":"11265","radarType":"ETF","speedLimit":30,"inServiceSince":"27/01/2014 00:00"}},{"type":"Feature","geometry":{"type":"Point","coordinates":[2.0739,48.90546]},"properties":{"id":"11305","radarType":"ETF","speedLimit":50,"inServiceSince":"15/04/2016 00:00"}},{"type":"Feature","geometry":{"type":"Point","coordinates":[2.359291,48.816346]},"properties":{"id":"11310","radarType":"ETF","speedLimit":50,"inServiceSince":"14/04/2017 00:00"}},{"type":"Feature","geometry":{"type":"Point","coordinates":[2.529935,49.084022]},"properties":{"id":"51021","radarType":"ETT","speedLimit":80,"inServiceSince":"24/12/2020 00:00"}},{"type":"Feature","geometry":{"type":"Point","coordinates":[2.698663,48.722639]},"properties":{"id":"51027","radarType":"ETT","speedLimit":80,"inServiceSince":"11/07/2019 00:00"}},{"type":"Feature","geometry":{"type":"Point","coordinates":[2.604879,48.456025]},"properties":{"id":"51028","radarType":"ETT","speedLimit":90,"inServiceSince":"07/08/2019 00:00"}},{"type":"Feature","geometry":{"type":"Point","coordinates":[3.187243,48.692508]},"properties":{"id":"51029","radarType":"ETT","speedLimit":70,"inServiceSince":"09/10/2019 00:00"}},{"type":"Feature","geometry":{"type":"Point","coordinates":[1.985089,48.770279]},"properties":{"id":"51030","radarType":"ETT","speedLimit":70,"inServiceSince":"29/07/2019 00:00"}},{"type":"Feature","geometry":{"type":"Point","coordinates":[2.061219,48.945376]},"properties":{"id":"51032","radarType":"ETT","speedLimit":50,"inServiceSince":"29/07/2019 00:00"}},{"type":"Feature","geometry":{"type":"Point","coordinates":[1.720196,48.978593]},"properties":{"id":"51038","radarType":"ETT","speedLimit":70,"inServiceSince":"14/04/2022 00:00"}},{"type":"Feature","geometry":{"type":"Point","coordinates":[3.252408,49.036297]},"properties":{"id":"51050","radarType":"ETT","speedLimit":70,"inServiceSince":"20/12/2019 00:00"}},{"type":"Feature","geometry":{"type":"Point","coordinates":[2.539706,49.141868]},"properties":{"id":"51068","radarType":"ETT","speedLimit":80,"inServiceSince":"12/12/2019 00:00"}},{"type":"Feature","geometry":{"type":"Point","coordinates":[3.052633,48.77983]},"properties":{"id":"51099","radarType":"ETT","speedLimit":80,"inServiceSince":"08/11/2019 00:00"}},{"type":"Feature","geometry":{"type":"Point","coordinates":[2.339855,48.665377]},"properties":{"id":"51113","radarType":"ETT","speedLimit":50,"inServiceSince":"19/12/2019 00:00"}},{"type":"Feature","geometry":{"type":"Point","coordinates":[1.931496,48.9957]},"properties":{"id":"51114","radarType":"ETT","speedLimit":50,"inServiceSince":"27/11/2019 00:00"}},{"type":"Feature","geometry":{"type":"Point","coordinates":[1.610821,49.019351]},"properties":{"id":"51115","radarType":"ETT","speedLimit":50,"inServiceSince":"03/12/2019 00:00"}},{"type":"Feature","geometry":{"type":"Point","coordinates":[2.090438,48.97211]},"properties":{"id":"51132","radarType":"ETT","speedLimit":90,"inServiceSince":"23/12/2019 00:00"}},{"type":"Feature","geometry":{"type":"Point","coordinates":[2.123953,48.942542]},"properties":{"id":"51133","radarType":"ETT","speedLimit":50,"inServiceSince":"23/12/2019 00:00"}},{"type":"Feature","geometry":{"type":"Point","coordinates":[1.846032,48.989768]},"properties":{"id":"51134","radarType":"ETT","speedLimit":50,"inServiceSince":"29/11/2019 00:00"}},{"type":"Feature","geometry":{"type":"Point","coordinates":[1.645147,49.220886]},"properties":{"id":"51147","radarType":"ETT","speedLimit":80,"inServiceSince":"27/08/2020 00:00"}},{"type":"Feature","geometry":{"type":"Point","coordinates":[1.534733,48.846425]},"properties":{"id":"51166","radarType":"ETT","speedLimit":70,"inServiceSince":"26/12/2019 00:00"}},{"type":"Feature","geometry":{"type":"Point","coordinates":[1.957466,48.443143]},"properties":{"id":"51200","radarType":"ETT","speedLimit":80,"inServiceSince":"09/10/2020 14:00"}},{"type":"Feature","geometry":{"type":"Point","coordinates":[1.9597,49.054215]},"properties":{"id":"51216","radarType":"ETT","speedLimit":80,"inServiceSince":"09/09/2020 00:00"}},{"type":"Feature","geometry":{"type":"Point","coordinates":[2.415471,49.088679]},"properties":{"id":"51222","radarType":"ETT","speedLimit":80,"inServiceSince":"09/09/2020 00:00"}},{"type":"Feature","geometry":{"type":"Point","coordinates":[2.864322,48.794388]},"properties":{"id":"51224","radarType":"ETT","speedLimit":80,"inServiceSince":"15/11/2019 00:00"}},{"type":"Feature","geometry":{"type":"Point","coordinates":[2.97644,48.958685]},"properties":{"id":"51238","radarType":"ETT","speedLimit":80,"inServiceSince":"02/12/2020 10:30"}},{"type":"Feature","geometry":{"type":"Point","coordinates":[3.534204,48.719662]},"properties":{"id":"51295","radarType":"ETT","speedLimit":80,"inServiceSince":"10/11/2020 00:00"}},{"type":"Feature","geometry":{"type":"Point","coordinates":[1.864966,49.204557]},"properties":{"id":"51315","radarType":"ETT","speedLimit":50,"inServiceSince":"17/06/2021 00:00"}},{"type":"Feature","geometry":{"type":"Point","coordinates":[2.75341,49.089203]},"properties":{"id":"51327","radarType":"ETT","speedLimit":50,"inServiceSince":"10/03/2022 00:00"}},{"type":"Feature","geometry":{"type":"Point","coordinates":[2.533166,49.122743]},"properties":{"id":"51334","radarType":"ETT","speedLimit":50,"inServiceSince":"13/07/2021 00:00"}},{"type":"Feature","geometry":{"type":"Point","coordinates":[3.064488,49.117928]},"properties":{"id":"51337","radarType":"ETT","speedLimit":50,"inServiceSince":"24/06/2021 00:00"}},{"type":"Feature","geometry":{"type":"Point","coordinates":[2.857849,49.121554]},"properties":{"id":"51340","radarType":"ETT","speedLimit":50,"inServiceSince":"28/02/2022 00:00"}},{"type":"Feature","geometry":{"type":"Point","coordinates":[2.60511,49.111055]},"properties":{"id":"51342","radarType":"ETT","speedLimit":50,"inServiceSince":"12/07/2021 00:00"}},{"type":"Feature","geometry":{"type":"Point","coordinates":[2.129476,49.242445]},"properties":{"id":"51343","radarType":"ETT","speedLimit":50,"inServiceSince":"12/02/2021 00:00"}},{"type":"Feature","geometry":{"type":"Point","coordinates":[2.608629,48.774596]},"properties":{"id":"51345","radarType":"ETT","speedLimit":70,"inServiceSince":"26/12/2022 00:00"}},{"type":"Feature","geometry":{"type":"Point","coordinates":[2.50864,48.305176]},"properties":{"id":"51354","radarType":"ETT","speedLimit":90,"inServiceSince":"31/07/2020 14:30"}},{"type":"Feature","geometry":{"type":"Point","coordinates":[2.362558,48.983066]},"properties":{"id":"51376","radarType":"ETT","speedLimit":50,"inServiceSince":"14/09/2021 16:20"}},{"type":"Feature","geometry":{"type":"Point","coordinates":[2.226707,49.176302]},"properties":{"id":"51384","radarType":"ETT","speedLimit":50,"inServiceSince":"13/01/2022 00:00"}},{"type":"Feature","geometry":{"type":"Point","coordinates":[1.75875,49.16919]},"properties":{"id":"51386","radarType":"ETT","speedLimit":90,"inServiceSince":"14/06/2021 00:00"}},{"type":"Feature","geometry":{"type":"Point","coordinates":[2.433814,48.872411]},"properties":{"id":"51390","radarType":"ETT","speedLimit":70,"inServiceSince":"16/05/2022 00:00"}},{"type":"Feature","geometry":{"type":"Point","coordinates":[2.150212,48.77442]},"properties":{"id":"51420","radarType":"ETT","speedLimit":70,"inServiceSince":"12/07/2021 10:40"}},{"type":"Feature","geometry":{"type":"Point","coordinates":[2.424164,48.769956]},"properties":{"id":"51430","radarType":"ETT","speedLimit":50,"inServiceSince":"27/06/2022 00:00"}},{"type":"Feature","geometry":{"type":"Point","coordinates":[2.231924,49.217701]},"properties":{"id":"51442","radarType":"ETT","speedLimit":80,"inServiceSince":"21/12/2021 00:00"}},{"type":"Feature","geometry":{"type":"Point","coordinates":[2.491458,48.76507]},"properties":{"id":"51447","radarType":"ETT","speedLimit":50,"inServiceSince":"27/06/2022 00:00"}},{"type":"Feature","geometry":{"type":"Point","coordinates":[2.385904,48.910063]},"properties":{"id":"51460","radarType":"ETT","speedLimit":50,"inServiceSince":"25/10/2022 00:00"}},{"type":"Feature","geometry":{"type":"Point","coordinates":[1.966077,48.679266]},"properties":{"id":"51472","radarType":"ETT","speedLimit":50,"inServiceSince":"19/08/2022 17:00"}},{"type":"Feature","geometry":{"type":"Point","coordinates":[2.487637,48.883957]},"properties":{"id":"51479","radarType":"ETT","speedLimit":50,"inServiceSince":"28/07/2022 00:00"}},{"type":"Feature","geometry":{"type":"Point","coordinates":[2.338835,48.951696]},"properties":{"id":"51480","radarType":"ETT","speedLimit":50,"inServiceSince":"29/09/2022 00:00"}},{"type":"Feature","geometry":{"type":"Point","coordinates":[2.020779,48.745702]},"properties":{"id":"51484","radarType":"ETT","speedLimit":50,"inServiceSince":"29/09/2022 00:00"}},{"type":"Feature","geometry":{"type":"Point","coordinates":[2.051544,48.742412]},"properties":{"id":"51485","radarType":"ETT","speedLimit":80,"inServiceSince":"31/10/2022 00:00"}},{"type":"Feature","geometry":{"type":"Point","coordinates":[2.351387,48.926333]},"properties":{"id":"51489","radarType":"ETT","speedLimit":50,"inServiceSince":"21/07/2022 19:00"}},{"type":"Feature","geometry":{"type":"Point","coordinates":[1.716972,49.257493]},"properties":{"id":"51499","radarType":"ETT","speedLimit":70,"inServiceSince":"16/02/2023 00:00"}},{"type":"Feature","geometry":{"type":"Point","coordinates":[2.239776,48.731288]},"properties":{"id":"51500","radarType":"ETT","speedLimit":70,"inServiceSince":"17/11/2022 00:00"}},{"type":"Feature","geometry":{"type":"Point","coordinates":[2.548477,48.727623]},"properties":{"id":"51501","radarType":"ETT","speedLimit":80,"inServiceSince":"22/09/2023 00:00"}},{"type":"Feature","geometry":{"type":"Point","coordinates":[2.565264,48.784402]},"properties":{"id":"51506","radarType":"ETT","speedLimit":70,"inServiceSince":"01/02/2023 00:00"}},{"type":"Feature","geometry":{"type":"Point","coordinates":[1.916715,48.707931]},"properties":{"id":"51516","radarType":"ETT","speedLimit":70,"inServiceSince":"15/02/2023 00:00"}},{"type":"Feature","geometry":{"type":"Point","coordinates":[1.90784,48.694]},"properties":{"id":"51517","radarType":"ETT","speedLimit":70,"inServiceSince":"10/07/2023 00:00"}},{"type":"Feature","geometry":{"type":"Point","coordinates":[2.988073,48.35676]},"properties":{"id":"51531","radarType":"ETT","speedLimit":90,"inServiceSince":"23/03/2023 10:00"}},{"type":"Feature","geometry":{"type":"Point","coordinates":[2.844165,48.958164]},"properties":{"id":"51537","radarType":"ETT","speedLimit":90,"inServiceSince":"16/05/2023 11:40"}},{"type":"Feature","geometry":{"type":"Point","coordinates":[2.418335,48.647945]},"properties":{"id":"51546","radarType":"ETT","speedLimit":50,"inServiceSince":"02/10/2023 00:00"}},{"type":"Feature","geometry":{"type":"Point","coordinates":[2.271737,48.889895]},"properties":{"id":"51547","radarType":"ETT","speedLimit":50,"inServiceSince":"06/09/2023 10:30"}},{"type":"Feature","geometry":{"type":"Point","coordinates":[3.494158,48.482699]},"properties":{"id":"51570","radarType":"ETT","speedLimit":90,"inServiceSince":"27/09/2023 12:00"}},{"type":"Feature","geometry":{"type":"Point","coordinates":[2.201433,48.991294]},"properties":{"id":"51573","radarType":"ETT","speedLimit":50,"inServiceSince":"27/03/2024 00:00"}},{"type":"Feature","geometry":{"type":"Point","coordinates":[1.858828,48.642791]},"properties":{"id":"51575","radarType":"ETT","speedLimit":50,"inServiceSince":"14/05/2024 00:00"}},{"type":"Feature","geometry":{"type":"Point","coordinates":[2.385032,49.001946]},"properties":{"id":"51587","radarType":"ETT","speedLimit":90,"inServiceSince":"27/12/2023 00:00"}},{"type":"Feature","geometry":{"type":"Point","coordinates":[2.301868,48.959419]},"properties":{"id":"51596","radarType":"ETT","speedLimit":50,"inServiceSince":"14/03/2024 09:35"}},{"type":"Feature","geometry":{"type":"Point","coordinates":[2.051946,49.211898]},"properties":{"id":"51607","radarType":"ETT","speedLimit":50,"inServiceSince":"12/04/2024 00:00"}},{"type":"Feature","geometry":{"type":"Point","coordinates":[2.556493,48.850138]},"properties":{"id":"51621","radarType":"ETT","speedLimit":50,"inServiceSince":"05/03/2024 22:00"}},{"type":"Feature","geometry":{"type":"Point","coordinates":[2.38259,48.957512]},"properties":{"id":"51623","radarType":"ETT","speedLimit":50,"inServiceSince":"02/04/2024 00:00"}},{"type":"Feature","geometry":{"type":"Point","coordinates":[2.505858,48.884977]},"properties":{"id":"51624","radarType":"ETT","speedLimit":50,"inServiceSince":"17/03/2025 00:00"}},{"type":"Feature","geometry":{"type":"Point","coordinates":[2.264299,48.883394]},"properties":{"id":"51626","radarType":"ETT","speedLimit":50,"inServiceSince":"15/04/2025 15:20"}},{"type":"Feature","geometry":{"type":"Point","coordinates":[2.516812,48.882725]},"properties":{"id":"51634","radarType":"ETT","speedLimit":50,"inServiceSince":"21/03/2025 00:00"}},{"type":"Feature","geometry":{"type":"Point","coordinates":[2.690017,48.390224]},"properties":{"id":"51637","radarType":"ETT","speedLimit":90,"inServiceSince":"05/04/2024 16:05"}},{"type":"Feature","geometry":{"type":"Point","coordinates":[2.68315,48.410662]},"properties":{"id":"51638","radarType":"ETT","speedLimit":90,"inServiceSince":"05/04/2024 16:05"}},{"type":"Feature","geometry":{"type":"Point","coordinates":[2.504203,48.645221]},"properties":{"id":"51651","radarType":"ETT","speedLimit":80,"inServiceSince":"09/09/2025 00:00"}},{"type":"Feature","geometry":{"type":"Point","coordinates":[1.990234,48.991506]},"properties":{"id":"51653","radarType":"ETT","speedLimit":50,"inServiceSince":"01/08/2024 00:00"}},{"type":"Feature","geometry":{"type":"Point","coordinates":[2.267456,49.203813]},"properties":{"id":"51657","radarType":"ETT","speedLimit":70,"inServiceSince":"24/06/2024 00:00"}},{"type":"Feature","geometry":{"type":"Point","coordinates":[1.88252,49.15766]},"properties":{"id":"51660","radarType":"ETT","speedLimit":80,"inServiceSince":"29/08/2024 11:00"}},{"type":"Feature","geometry":{"type":"Point","coordinates":[1.960768,48.810655]},"properties":{"id":"51672","radarType":"ETT","speedLimit":70,"inServiceSince":"13/03/2025 00:00"}},{"type":"Feature","geometry":{"type":"Point","coordinates":[2.755637,48.548716]},"properties":{"id":"51675","radarType":"ETT","speedLimit":90,"inServiceSince":"30/07/2024 12:00"}},{"type":"Feature","geometry":{"type":"Point","coordinates":[2.167123,48.357386]},"properties":{"id":"51676","radarType":"ETT","speedLimit":80,"inServiceSince":"05/11/2025 19:00"}},{"type":"Feature","geometry":{"type":"Point","coordinates":[2.379135,48.986826]},"properties":{"id":"51687","radarType":"ETT","speedLimit":80,"inServiceSince":"06/06/2025 09:25"}},{"type":"Feature","geometry":{"type":"Point","coordinates":[2.514662,48.976842]},"properties":{"id":"51690","radarType":"ETT","speedLimit":50,"inServiceSince":"25/06/2025 00:00"}},{"type":"Feature","geometry":{"type":"Point","coordinates":[2.084083,48.921833]},"properties":{"id":"FE278100","radarType":"ETT","speedLimit":null,"inServiceSince":"27/07/2020 00:00"}},{"type":"Feature","geometry":{"type":"Point","coordinates":[1.90638,49.001753]},"properties":{"id":"FE278102","radarType":"ETT","speedLimit":null,"inServiceSince":"12/07/2021 16:30"}},{"type":"Feature","geometry":{"type":"Point","coordinates":[1.911886,48.985339]},"properties":{"id":"FE278103","radarType":"ETT","speedLimit":null,"inServiceSince":"20/09/2022 00:00"}},{"type":"Feature","geometry":{"type":"Point","coordinates":[2.152733,48.79823]},"properties":{"id":"FE278104","radarType":"ETT","speedLimit":null,"inServiceSince":"27/04/2023 00:00"}},{"type":"Feature","geometry":{"type":"Point","coordinates":[2.275737,48.900794]},"properties":{"id":"FE292100","radarType":"ETT","speedLimit":null,"inServiceSince":"02/09/2025 00:00"}},{"type":"Feature","geometry":{"type":"Point","coordinates":[2.372392,48.935799]},"properties":{"id":"FE293101","radarType":"ETT","speedLimit":null,"inServiceSince":"15/02/2022 00:00"}},{"type":"Feature","geometry":{"type":"Point","coordinates":[2.374955,48.905779]},"properties":{"id":"FE293102","radarType":"ETT","speedLimit":null,"inServiceSince":"23/05/2022 00:00"}},{"type":"Feature","geometry":{"type":"Point","coordinates":[2.563134,48.95325]},"properties":{"id":"FE293103","radarType":"ETT","speedLimit":null,"inServiceSince":"01/03/2023 20:40"}},{"type":"Feature","geometry":{"type":"Point","coordinates":[2.493833,48.946008]},"properties":{"id":"FE293104","radarType":"ETT","speedLimit":null,"inServiceSince":"01/03/2023 20:40"}},{"type":"Feature","geometry":{"type":"Point","coordinates":[2.447139,48.770467]},"properties":{"id":"FE294000","radarType":"ETU","speedLimit":null,"inServiceSince":"13/02/2025 13:09"}}]}